NORAD_CAT_ID,OBJECT_NAME,OBJECT_TYPE,EPOCH,MEAN_MOTION,ECCENTRICITY,INCLINATION,RA_OF_ASC_NODE,ARG_OF_PERICENTER,MEAN_ANOMALY,BSTAR,MEAN_MOTION_DOT,MEAN_MOTION_DDOT,TLE_LINE0,TLE_LINE1,TLE_LINE2,SEMIMAJOR_AXIS,PERIOD,APOGEE,PERIGEE,DECAYED
55933.0,STARLINK-5852,PAYLOAD,2023-04-20 07:15:49,15.69930676,0.0002624,70.0003,86.787,268.5924,91.4971,5.3965e-06,4.37e-06,0.0,0 STARLINK-5852,1 55933U 23037V   23110.30265921  .00000437  00000-0  53965-5 0  9992,2 55933  70.0003  86.7870 0002624 268.5924  91.4971 15.69930676  5450,6737.232,91.724,360.865,357.329,0.0
55933.0,STARLINK-5852,PAYLOAD,2023-04-21 06:12:06,15.69927403,0.0003197,70.0004,84.1031,266.4128,93.6702,3.9115e-05,4.494e-05,0.0,0 STARLINK-5852,1 55933U 23037V   23111.25841170  .00004494  00000-0  39115-4 0  9990,2 55933  70.0004  84.1031 0003197 266.4128  93.6702 15.69927403  5945,6737.242,91.724,361.261,356.953,0.0
55933.0,STARLINK-5852,PAYLOAD,2023-04-21 15:22:37,15.69920693,0.0003319,69.9989,83.0276,269.7909,90.2906,1.9954e-05,2.187e-05,0.0,0 STARLINK-5852,1 55933U 23037V   23111.64071489  .00002187  00000-0  19954-4 0  9997,2 55933  69.9989  83.0276 0003319 269.7909  90.2906 15.69920693  6003,6737.261,91.724,361.362,356.89,0.0
55933.0,STARLINK-5852,PAYLOAD,2023-04-21 21:29:37,15.69931022,0.0003531,69.9993,82.3102,270.4776,89.6015,8.8707e-06,8.54e-06,0.0,0 STARLINK-5852,1 55933U 23037V   23111.89557695  .00000854  00000-0  88707-5 0  9994,2 55933  69.9993  82.3102 0003531 270.4776  89.6015 15.69931022  5702,6737.231,91.724,361.475,356.717,0.0
55933.0,STARLINK-5852,PAYLOAD,2023-04-22 20:25:55,15.69922517,0.0003531,70.0011,79.6244,270.3868,89.6923,-6.294e-06,-9.69e-06,0.0,0 STARLINK-5852,1 55933U 23037V   23112.85133113 -.00000969  00000-0 -62940-5 0  9996,2 55933  70.0011  79.6244 0003531 270.3868  89.6923 15.69922517  6194,6737.256,91.724,361.5,356.742,0.0
55933.0,STARLINK-5852,PAYLOAD,2023-04-23 04:04:40,15.69935362,0.0003036,70.0018,78.7303,265.6817,94.4032,2.6274e-05,2.949e-05,0.0,0 STARLINK-5852,1 55933U 23037V   23113.16990935  .00002949  00000-0  26274-4 0  9991,2 55933  70.0018  78.7303 0003036 265.6817  94.4032 15.69935362  5903,6737.219,91.724,361.129,357.039,0.0
55933.0,STARLINK-5852,PAYLOAD,2023-04-23 07:08:10,15.69929131,0.0003355,69.9997,78.3698,268.8762,91.2049,1.1981e-05,1.228e-05,0.0,0 STARLINK-5852,1 55933U 23037V   23113.29734510  .00001228  00000-0  11981-4 0  9998,2 55933  69.9997  78.3698 0003355 268.8762  91.2049 15.69929131  6267,6737.237,91.724,361.362,356.841,0.0
55933.0,STARLINK-5852,PAYLOAD,2023-04-23 20:53:56,15.69925837,0.0003085,70.0013,76.759,267.6896,92.3946,4.3156e-06,3.06e-06,0.0,0 STARLINK-5852,1 55933U 23037V   23113.87079626  .00000306  00000-0  43156-5 0  9998,2 55933  70.0013  76.7590 0003085 267.6896  92.3946 15.69925837  6017,6737.246,91.724,361.19,357.033,0.0
55933.0,STARLINK-5852,PAYLOAD,2023-04-23 23:57:26,15.69937589,0.0003063,70.0023,76.4001,266.3926,93.692,3.0079e-05,3.407e-05,0.0,0 STARLINK-5852,1 55933U 23037V   23113.99822665  .00003407  00000-0  30079-4 0  9994,2 55933  70.0023  76.4001 0003063 266.3926  93.6920 15.69937589  6033,6737.213,91.723,361.141,357.014,0.0
55933.0,STARLINK-5852,PAYLOAD,2023-04-25 00:25:28,15.69874823,0.0002825,70.0019,73.5353,233.9687,126.1247,-0.00021412,-0.00025824,0.0,0 STARLINK-5852,1 55933U 23037V   23115.01769451 -.00025824  00000-0 -21412-3 0  9991,2 55933  70.0019  73.5353 0002825 233.9687 126.1247 15.69874823  6535,6737.392,91.727,361.16,357.354,0.0
55933.0,STARLINK-5852,PAYLOAD,2023-04-25 06:32:30,15.69865154,0.0002765,70.0036,72.8207,243.7231,116.3681,-0.00020091,-0.00024239,0.0,0 STARLINK-5852,1 55933U 23037V   23115.27257435 -.00024239  00000-0 -20091-3 0  9994,2 55933  70.0036  72.8207 0002765 243.7231 116.3681 15.69865154  6238,6737.42,91.728,361.148,357.422,0.0
55933.0,STARLINK-5852,PAYLOAD,2023-04-25 20:18:17,15.69890234,0.000315,70.0005,71.2015,269.0928,90.9907,-6.2874e-05,-7.755e-05,0.0,0 STARLINK-5852,1 55933U 23037V   23115.84603250 -.00007755  00000-0 -62874-4 0  9997,2 55933  70.0005  71.2015 0003150 269.0928  90.9907 15.69890234  6669,6737.348,91.726,361.335,357.091,0.0
55933.0,STARLINK-5852,PAYLOAD,2023-04-26 07:00:32,15.69923354,0.0002953,70.0042,69.9551,258.7899,101.2965,7.0429e-05,8.264e-05,0.0,0 STARLINK-5852,1 55933U 23037V   23116.29204651  .00008264  00000-0  70429-4 0  9998,2 55933  70.0042  69.9551 0002953 258.7899 101.2965 15.69923354  6391,6737.253,91.724,361.108,357.129,0.0
55933.0,STARLINK-5852,PAYLOAD,2023-04-27 02:53:18,15.69956761,0.0003163,70.0037,67.6246,259.6948,100.3891,0.00010299,0.00012205,0.0,0 STARLINK-5852,1 55933U 23037V   23117.12035215  .00012205  00000-0  10299-3 0  9997,2 55933  70.0037  67.6246 0003163 259.6948 100.3891 15.69956761  6868,6737.158,91.722,361.154,356.892,0.0
55933.0,STARLINK-5852,PAYLOAD,2023-04-27 05:56:48,15.69929775,0.0002899,70.0021,67.2651,262.1798,97.9068,-1.8332e-05,-2.416e-05,0.0,0 STARLINK-5852,1 55933U 23037V   23117.24778680 -.00002416  00000-0 -18332-4 0  9992,2 55933  70.0021  67.2651 0002899 262.1798  97.9068 15.69929775  6541,6737.235,91.724,361.053,357.147,0.0
55933.0,STARLINK-5852,PAYLOAD,2023-04-27 21:14:19,15.69935733,0.0003066,70.0006,65.4741,261.1357,98.9492,1.5818e-05,1.691e-05,0.0,0 STARLINK-5852,1 55933U 23037V   23117.88494922  .00001691  00000-0  15818-4 0  9994,2 55933  70.0006  65.4741 0003066 261.1357  98.9492 15.69935733  6982,6737.218,91.723,361.148,357.017,0.0
55933.0,STARLINK-5852,PAYLOAD,2023-04-28 06:24:50,15.69918384,0.0003161,70.0015,64.3981,264.9821,95.1014,2.2904e-05,2.542e-05,0.0,0 STARLINK-5852,1 55933U 23037V   23118.26725551  .00002542  00000-0  22904-4 0  9992,2 55933  70.0015  64.3981 0003161 264.9821  95.1014 15.69918384  7049,6737.268,91.725,361.262,357.003,0.0
55933.0,STARLINK-5852,PAYLOAD,2023-04-29 05:21:07,15.69928891,0.0003171,70.0012,61.7121,263.2399,96.8436,3.9201e-05,4.504e-05,0.0,0 STARLINK-5852,1 55933U 23037V   23119.22300383  .00004504  00000-0  39201-4 0  9999,2 55933  70.0012  61.7121 0003171 263.2399  96.8436 15.69928891  6854,6737.237,91.724,361.239,356.966,0.0
55933.0,STARLINK-5852,PAYLOAD,2023-04-29 23:42:09,15.69928396,0.0003008,70.0017,59.5616,261.0458,99.0397,3.0041e-05,3.402e-05,0.0,0 STARLINK-5852,1 55933U 23037V   23119.98760479  .00003402  00000-0  30041-4 0  9997,2 55933  70.0017  59.5616 0003008 261.0458  99.0397 15.69928396  7317,6737.239,91.724,361.13,357.077,0.0
55933.0,STARLINK-5852,PAYLOAD,2023-04-30 07:20:55,15.69918815,0.0002371,70.0027,58.6668,282.3485,77.7446,-7.9796e-06,-1.171e-05,0.0,0 STARLINK-5852,1 55933U 23037V   23120.30619352 -.00001171  00000-0 -79796-5 0  9992,2 55933  70.0027  58.6668 0002371 282.3485  77.7446 15.69918815  7361,6737.266,91.724,360.729,357.534,0.0
55933.0,STARLINK-5852,PAYLOAD,2023-05-01 06:17:11,15.6992776,0.0003097,70.0017,55.9781,255.5122,104.573,2.6987e-05,3.034e-05,0.0,0 STARLINK-5852,1 55933U 23037V   23121.26194195  .00003034  00000-0  26987-4 0  9992,2 55933  70.0017  55.9781 0003097 255.5122 104.5730 15.69927760  7175,6737.241,91.724,361.192,357.019,0.0
55933.0,STARLINK-5852,PAYLOAD,2023-05-01 21:34:42,15.6993601,0.0003161,70.002,54.1878,255.0741,105.0105,4.2048e-05,4.849e-05,0.0,0 STARLINK-5852,1 55933U 23037V   23121.89910469  .00004849  00000-0  42048-4 0  9992,2 55933  70.0020  54.1878 0003161 255.0741 105.0105 15.69936010  7272,6737.217,91.723,361.212,356.952,0.0
55933.0,STARLINK-5852,PAYLOAD,2023-05-01 23:06:27,15.6993689,0.0003184,70.0019,54.009,256.2944,103.7897,4.1093e-05,4.734e-05,0.0,0 STARLINK-5852,1 55933U 23037V   23121.96282079  .00004734  00000-0  41093-4 0  9991,2 55933  70.0019  54.0090 0003184 256.2944 103.7897 15.69936890  7626,6737.215,91.723,361.225,356.934,0.0
55933.0,STARLINK-5852,PAYLOAD,2023-05-02 05:13:28,15.69932005,0.0003144,70.0014,53.2884,271.5587,88.5249,3.3225e-05,3.785e-05,0.0,0 STARLINK-5852,1 55933U 23037V   23122.21768939  .00003785  00000-0  33225-4 0  9997,2 55933  70.0014  53.2884 0003144 271.5587  88.5249 15.69932005  7661,6737.229,91.724,361.212,356.975,0.0
55933.0,STARLINK-5852,PAYLOAD,2023-05-02 12:52:14,15.69922714,0.0002681,70.0017,52.3966,271.9214,88.1674,1.3238e-05,1.379e-05,0.0,0 STARLINK-5852,1 55933U 23037V   23122.53627907  .00001379  00000-0  13238-4 0  9990,2 55933  70.0017  52.3966 0002681 271.9214  88.1674 15.69922714  7711,6737.255,91.724,360.926,357.314,0.0
55933.0,STARLINK-5852,PAYLOAD,2023-05-02 20:31:00,15.69906539,0.0003533,70.0019,51.5013,260.8251,99.2545,-3.6584e-05,-4.606e-05,0.0,0 STARLINK-5852,1 55933U 23037V   23122.85486628 -.00004606  00000-0 -36584-4 0  9995,2 55933  70.0019  51.5013 0003533 260.8251  99.2545 15.69906539  7427,6737.301,91.725,361.547,356.786,0.0
55933.0,STARLINK-5852,PAYLOAD,2023-05-03 05:41:31,15.69917999,0.0002815,70.0034,50.4266,231.5273,128.567,-6.648e-07,-2.92e-06,0.0,0 STARLINK-5852,1 55933U 23037V   23123.23716586 -.00000292  00000-0 -66480-6 0  9994,2 55933  70.0034  50.4266 0002815 231.5273 128.5670 15.69917999  7486,6737.269,91.725,361.03,357.237,0.0
55933.0,STARLINK-5852,PAYLOAD,2023-05-03 20:59:01,15.69934422,0.0003404,70.0021,48.6337,247.866,112.2174,4.1188e-05,4.745e-05,0.0,0 STARLINK-5852,1 55933U 23037V   23123.87432497  .00004745  00000-0  41188-4 0  9991,2 55933  70.0021  48.6337 0003404 247.8660 112.2174 15.69934422  7585,6737.222,91.724,361.38,356.793,0.0
55933.0,STARLINK-5852,PAYLOAD,2023-05-04 03:06:02,15.6993352,0.0003489,70.0027,47.9176,246.7399,113.343,4.996e-05,5.801e-05,0.0,0 STARLINK-5852,1 55933U 23037V   23124.12919229  .00005801  00000-0  49960-4 0  9993,2 55933  70.0027  47.9176 0003489 246.7399 113.3430 15.69933520  7961,6737.224,91.724,361.44,356.739,0.0
55933.0,STARLINK-5852,PAYLOAD,2023-05-04 04:37:47,15.69930029,0.0003512,70.002,47.737,252.6234,107.4577,3.9712e-05,4.566e-05,0.0,0 STARLINK-5852,1 55933U 23037V   23124.19291025  .00004566  00000-0  39712-4 0  9998,2 55933  70.0020  47.7370 0003512 252.6234 107.4577 15.69930029  7630,6737.234,91.724,361.465,356.733,0.0
